IRIDIUM 116             
1 43072U 17083C   24102.80736452  .00000086  00000+0  23526-4 0  9994
2 43072  86.3913 294.8370 0001954  87.4363 272.7057 14.34218155330023
IRIDIUM 130             
1 43073U 17083D   24102.91519176  .00000109  00000+0  31722-4 0  9992
2 43073  86.3921 294.9900 0002258  88.1492 271.9963 14.34216307329989
IRIDIUM 151             
1 43074U 17083E   24102.88981878  .00000111  00000+0  32744-4 0  9999
2 43074  86.3914 294.8421 0001959 101.3121 258.8295 14.34216768330001
IRIDIUM 134             
1 43075U 17083F   24103.20694657  .00000115  00000+0  33852-4 0  9998
2 43075  86.3916 294.7067 0002249  85.9721 274.1732 14.34216683330019
IRIDIUM 137             
1 43076U 17083G   24102.59171562  .00000114  00000+0  33534-4 0  9991
2 43076  86.3916 295.0410 0001652  91.7579 268.3806 14.34216283329997
IRIDIUM 141             
1 43077U 17083H   24102.72489605  .00000013  00000+0 -24419-5 0  9999
2 43077  86.3914 294.8609 0002157  92.4154 267.7289 14.34218231330019
IRIDIUM 153             
1 43078U 17083J   24102.88638137  .00000139  00000+0  42549-4 0  9994
2 43078  86.3926 263.2222 0002447 102.7188 257.4282 14.34218057331148
IRIDIUM 131             
1 43079U 17083K   24102.92153310  .00000108  00000+0  31355-4 0  9994
2 43079  86.3917 294.9117 0001974  91.8833 268.2589 14.34216258329971
